start=new Date('2022-07-24T00:00:00.000Z').valueOf();
sats=[{"MEAN_MOTION":"15.08847233","TIME_SYSTEM":"UTC","BSTAR":"-0.00108680000000","EPOCH":"2022-07-24T00:00:00.999648","SITE":"AFWTR","REV_AT_EPOCH":"2408","FILE":"3520589","APOAPSIS":"541.159","REF_FRAME":"TEME","EPHEMERIS_TYPE":"0","PERIAPSIS":"538.287","MEAN_MOTION_DDOT":"0.0000000000000","CENTER_NAME":"EARTH","MEAN_ANOMALY":"50.9755","RA_OF_ASC_NODE":"165.8767","TLE_LINE1":"1 51781U 22017P   22205.00001157 -.00017547  00000-0 -10868-2 0  9990","TLE_LINE2":"2 51781  53.2164 165.8767 0002076  50.6882  50.9755 15.08847233 24085","MEAN_ELEMENT_THEORY":"SGP4","PERIOD":"95.437","ECCENTRICITY":"0.00020760","MEAN_MOTION_DOT":"-0.00017547","COUNTRY_CODE":"US","GP_ID":"208714794","SEMIMAJOR_AXIS":"6917.858","OBJECT_ID":"2022-017P","INCLINATION":"53.2164","ARG_OF_PERICENTER":"50.6882","RCS_SIZE":"LARGE","NORAD_CAT_ID":"51781","OBJECT_NAME":"STARLINK-3580","DECAY_DATE":null,"CLASSIFICATION_TYPE":"U","ELEMENT_SET_NO":"999","OBJECT_TYPE":"PAYLOAD","LAUNCH_DATE":"2022-02-25"},{"SEMIMAJOR_AXIS":"6917.886","GP_ID":"208737683","COUNTRY_CODE":"US","INCLINATION":"53.2139","OBJECT_ID":"2022-017Q","RCS_SIZE":"LARGE","NORAD_CAT_ID":"51782","ARG_OF_PERICENTER":"60.5461","DECAY_DATE":null,"OBJECT_NAME":"STARLINK-3616","CLASSIFICATION_TYPE":"U","LAUNCH_DATE":"2022-02-25","OBJECT_TYPE":"PAYLOAD","ELEMENT_SET_NO":"999","BSTAR":"0.00165480000000","TIME_SYSTEM":"UTC","MEAN_MOTION":"15.08838152","SITE":"AFWTR","REV_AT_EPOCH":"130","EPOCH":"2022-07-23T22:00:00.999936","REF_FRAME":"TEME","APOAPSIS":"541.106","FILE":"3520602","CENTER_NAME":"EARTH","MEAN_MOTION_DDOT":"0.0000000000000","PERIAPSIS":"538.397","EPHEMERIS_TYPE":"0","PERIOD":"95.438","MEAN_ELEMENT_THEORY":"SGP4","TLE_LINE2":"2 51782  53.2139 176.2507 0001958  60.5461 213.2341 15.08838152  1302","RA_OF_ASC_NODE":"176.2507","TLE_LINE1":"1 51782U 22017Q   22204.91667824  .00026145  00000-0  16548-2 0  9992","MEAN_ANOMALY":"213.2341","MEAN_MOTION_DOT":"0.00026145","ECCENTRICITY":"0.00019580"},{"REF_FRAME":"TEME","FILE":"3520602","APOAPSIS":"541.289","REV_AT_EPOCH":"130","SITE":"AFWTR","EPOCH":"2022-07-23T22:00:00.999936","TIME_SYSTEM":"UTC","BSTAR":"0.00112970000000","MEAN_MOTION":"15.08832871","MEAN_MOTION_DOT":"0.00017734","ECCENTRICITY":"0.00022000","MEAN_ELEMENT_THEORY":"SGP4","PERIOD":"95.438","TLE_LINE2":"2 51783  53.2163 166.2495 0002200  48.7268 340.0362 15.08832871  1303","RA_OF_ASC_NODE":"166.2495","TLE_LINE1":"1 51783U 22017R   22204.91667824  .00017734  00000-0  11297-2 0  9993","MEAN_ANOMALY":"340.0362","CENTER_NAME":"EARTH","PERIAPSIS":"538.245","MEAN_MOTION_DDOT":"0.0000000000000","EPHEMERIS_TYPE":"0","NORAD_CAT_ID":"51783","RCS_SIZE":"LARGE","ARG_OF_PERICENTER":"48.7268","INCLINATION":"53.2163","OBJECT_ID":"2022-017R","SEMIMAJOR_AXIS":"6917.902","GP_ID":"208738934","COUNTRY_CODE":"US","LAUNCH_DATE":"2022-02-25","OBJECT_TYPE":"PAYLOAD","ELEMENT_SET_NO":"999","CLASSIFICATION_TYPE":"U","DECAY_DATE":null,"OBJECT_NAME":"STARLINK-3628"},{"APOAPSIS":"541.276","FILE":"3520602","REF_FRAME":"TEME","EPOCH":"2022-07-23T22:00:00.999936","SITE":"AFWTR","REV_AT_EPOCH":"130","MEAN_MOTION":"15.08828581","BSTAR":"0.00174520000000","TIME_SYSTEM":"UTC","MEAN_MOTION_DOT":"0.00027588","ECCENTRICITY":"0.00021620","TLE_LINE1":"1 51784U 22017S   22204.91667824  .00027588  00000-0  17452-2 0  9991","RA_OF_ASC_NODE":"176.2495","MEAN_ANOMALY":"238.7918","MEAN_ELEMENT_THEORY":"SGP4","PERIOD":"95.438","TLE_LINE2":"2 51784  53.2148 176.2495 0002162  54.9897 238.7918 15.08828581  1305","EPHEMERIS_TYPE":"0","CENTER_NAME":"EARTH","MEAN_MOTION_DDOT":"0.0000000000000","PERIAPSIS":"538.285","RCS_SIZE":"LARGE","NORAD_CAT_ID":"51784","ARG_OF_PERICENTER":"54.9897","INCLINATION":"53.2148","OBJECT_ID":"2022-017S","GP_ID":"208738685","COUNTRY_CODE":"US","SEMIMAJOR_AXIS":"6917.915","OBJECT_TYPE":"PAYLOAD","ELEMENT_SET_NO":"999","LAUNCH_DATE":"2022-02-25","CLASSIFICATION_TYPE":"U","OBJECT_NAME":"STARLINK-3632","DECAY_DATE":null},{"OBJECT_NAME":"STARLINK-3646","DECAY_DATE":null,"CLASSIFICATION_TYPE":"U","OBJECT_TYPE":"PAYLOAD","ELEMENT_SET_NO":"999","LAUNCH_DATE":"2022-02-25","GP_ID":"208714674","COUNTRY_CODE":"US","SEMIMAJOR_AXIS":"6917.850","INCLINATION":"53.2174","OBJECT_ID":"2022-017T","RCS_SIZE":"LARGE","NORAD_CAT_ID":"51785","ARG_OF_PERICENTER":"57.4274","EPHEMERIS_TYPE":"0","CENTER_NAME":"EARTH","MEAN_MOTION_DDOT":"0.0000000000000","PERIAPSIS":"538.216","TLE_LINE1":"1 51785U 22017T   22205.00001157 -.00016750  00000-0 -10364-2 0  9990","RA_OF_ASC_NODE":"165.8837","MEAN_ANOMALY":"84.2623","MEAN_ELEMENT_THEORY":"SGP4","PERIOD":"95.437","TLE_LINE2":"2 51785  53.2174 165.8837 0002166  57.4274  84.2623 15.08849985 24123","MEAN_MOTION_DOT":"-0.00016750","ECCENTRICITY":"0.00021660","MEAN_MOTION":"15.08849985","BSTAR":"-0.00103640000000","TIME_SYSTEM":"UTC","EPOCH":"2022-07-24T00:00:00.999648","SITE":"AFWTR","REV_AT_EPOCH":"2412","FILE":"3520589","APOAPSIS":"541.213","REF_FRAME":"TEME"},{"SEMIMAJOR_AXIS":"6917.793","GP_ID":"208714670","COUNTRY_CODE":"US","INCLINATION":"53.2138","OBJECT_ID":"2022-017U","RCS_SIZE":"LARGE","NORAD_CAT_ID":"51786","ARG_OF_PERICENTER":"49.8635","DECAY_DATE":null,"OBJECT_NAME":"STARLINK-3638","CLASSIFICATION_TYPE":"U","LAUNCH_DATE":"2022-02-25","OBJECT_TYPE":"PAYLOAD","ELEMENT_SET_NO":"999","TIME_SYSTEM":"UTC","BSTAR":"-0.00333990000000","MEAN_MOTION":"15.08868724","REV_AT_EPOCH":"2398","SITE":"AFWTR","EPOCH":"2022-07-24T00:00:00.999648","REF_FRAME":"TEME","APOAPSIS":"541.162","FILE":"3520589","CENTER_NAME":"EARTH","PERIAPSIS":"538.154","MEAN_MOTION_DDOT":"0.0000000000000","EPHEMERIS_TYPE":"0","MEAN_ELEMENT_THEORY":"SGP4","PERIOD":"95.436","TLE_LINE2":"2 51786  53.2138 175.8796 0002174  49.8635  16.8715 15.08868724 23982","RA_OF_ASC_NODE":"175.8796","TLE_LINE1":"1 51786U 22017U   22205.00001157 -.00053095  00000-0 -33399-2 0  9997","MEAN_ANOMALY":"16.8715","MEAN_MOTION_DOT":"-0.00053095","ECCENTRICITY":"0.00021740"},{"GP_ID":"208714799","COUNTRY_CODE":"US","SEMIMAJOR_AXIS":"6917.886","INCLINATION":"53.2154","OBJECT_ID":"2022-017V","RCS_SIZE":"LARGE","NORAD_CAT_ID":"51787","ARG_OF_PERICENTER":"46.6110","OBJECT_NAME":"STARLINK-3619","DECAY_DATE":null,"CLASSIFICATION_TYPE":"U","OBJECT_TYPE":"PAYLOAD","ELEMENT_SET_NO":"999","LAUNCH_DATE":"2022-02-25","MEAN_MOTION":"15.08838099","BSTAR":"-0.00052510000000","TIME_SYSTEM":"UTC","EPOCH":"2022-07-24T00:00:00.999648","REV_AT_EPOCH":"2393","SITE":"AFWTR","FILE":"3520589","APOAPSIS":"541.206","REF_FRAME":"TEME","EPHEMERIS_TYPE":"0","CENTER_NAME":"EARTH","PERIAPSIS":"538.296","MEAN_MOTION_DDOT":"0.0000000000000","TLE_LINE1":"1 51787U 22017V   22205.00001157 -.00008635  00000-0 -52510-3 0  9995","RA_OF_ASC_NODE":"175.8749","MEAN_ANOMALY":"300.0871","PERIOD":"95.438","MEAN_ELEMENT_THEORY":"SGP4","TLE_LINE2":"2 51787  53.2154 175.8749 0002103  46.6110 300.0871 15.08838099 23932","MEAN_MOTION_DOT":"-0.00008635","ECCENTRICITY":"0.00021030"},{"SEMIMAJOR_AXIS":"6917.879","GP_ID":"208739185","COUNTRY_CODE":"US","INCLINATION":"53.2168","OBJECT_ID":"2022-017W","NORAD_CAT_ID":"51788","RCS_SIZE":"LARGE","ARG_OF_PERICENTER":"47.5599","DECAY_DATE":null,"OBJECT_NAME":"STARLINK-3641","CLASSIFICATION_TYPE":"U","LAUNCH_DATE":"2022-02-25","OBJECT_TYPE":"PAYLOAD","ELEMENT_SET_NO":"999","BSTAR":"0.00173010000000","TIME_SYSTEM":"UTC","MEAN_MOTION":"15.08840439","REV_AT_EPOCH":"130","SITE":"AFWTR","EPOCH":"2022-07-23T22:00:00.999936","REF_FRAME":"TEME","APOAPSIS":"541.390","FILE":"3520602","CENTER_NAME":"EARTH","PERIAPSIS":"538.098","MEAN_MOTION_DDOT":"0.0000000000000","EPHEMERIS_TYPE":"0","MEAN_ELEMENT_THEORY":"SGP4","PERIOD":"95.438","TLE_LINE2":"2 51788  53.2168 176.2648 0002379  47.5599 346.1854 15.08840439  1307","TLE_LINE1":"1 51788U 22017W   22204.91667824  .00027355  00000-0  17301-2 0  9990","RA_OF_ASC_NODE":"176.2648","MEAN_ANOMALY":"346.1854","MEAN_MOTION_DOT":"0.00027355","ECCENTRICITY":"0.00023790"},{"GP_ID":"208737434","COUNTRY_CODE":"US","SEMIMAJOR_AXIS":"6917.835","RCS_SIZE":"LARGE","NORAD_CAT_ID":"51789","ARG_OF_PERICENTER":"58.0321","INCLINATION":"53.2143","OBJECT_ID":"2022-017X","CLASSIFICATION_TYPE":"U","OBJECT_NAME":"STARLINK-3639","DECAY_DATE":null,"OBJECT_TYPE":"PAYLOAD","ELEMENT_SET_NO":"999","LAUNCH_DATE":"2022-02-25","EPOCH":"2022-07-23T22:00:00.999936","SITE":"AFWTR","REV_AT_EPOCH":"130","MEAN_MOTION":"15.08854753","TIME_SYSTEM":"UTC","BSTAR":"0.00020260000000","FILE":"3520602","APOAPSIS":"540.887","REF_FRAME":"TEME","TLE_LINE1":"1 51789U 22017X   22204.91667824  .00002939  00000-0  20260-3 0  9991","RA_OF_ASC_NODE":"176.2556","MEAN_ANOMALY":"255.7322","PERIOD":"95.437","MEAN_ELEMENT_THEORY":"SGP4","TLE_LINE2":"2 51789  53.2143 176.2556 0001715  58.0321 255.7322 15.08854753  1301","EPHEMERIS_TYPE":"0","CENTER_NAME":"EARTH","PERIAPSIS":"538.514","MEAN_MOTION_DDOT":"0.0000000000000","MEAN_MOTION_DOT":"0.00002939","ECCENTRICITY":"0.00017150"},{"PERIOD":"95.438","MEAN_ELEMENT_THEORY":"SGP4","TLE_LINE2":"2 51790  53.2159 176.2630 0002073  54.8765 358.9080 15.08825192  1309","RA_OF_ASC_NODE":"176.2630","TLE_LINE1":"1 51790U 22017Y   22204.91667824  .00025577  00000-0  16199-2 0  9991","MEAN_ANOMALY":"358.9080","CENTER_NAME":"EARTH","MEAN_MOTION_DDOT":"0.0000000000000","PERIAPSIS":"538.357","EPHEMERIS_TYPE":"0","MEAN_MOTION_DOT":"0.00025577","ECCENTRICITY":"0.00020730","SITE":"AFWTR","REV_AT_EPOCH":"130","EPOCH":"2022-07-23T22:00:00.999936","BSTAR":"0.00161990000000","TIME_SYSTEM":"UTC","MEAN_MOTION":"15.08825192","REF_FRAME":"TEME","FILE":"3520602","APOAPSIS":"541.225","CLASSIFICATION_TYPE":"U","DECAY_DATE":null,"OBJECT_NAME":"STARLINK-3631","LAUNCH_DATE":"2022-02-25","OBJECT_TYPE":"PAYLOAD","ELEMENT_SET_NO":"999","SEMIMAJOR_AXIS":"6917.926","GP_ID":"208737684","COUNTRY_CODE":"US","NORAD_CAT_ID":"51790","RCS_SIZE":"LARGE","ARG_OF_PERICENTER":"54.8765","INCLINATION":"53.2159","OBJECT_ID":"2022-017Y"}];
